{
  "type": "FeatureCollection",
  "features": [
    {
      "type": "Feature",
      "properties": {
        "norad_id": 39160,
        "name": "VNREDSAT 1",
        "group": "resource",
        "lat": 13.10041883818239,
        "lon": -143.12886760224404,
        "alt_km": 678.4410324113769,
        "timestamp": "2025-12-05T11:32:55.683367+00:00",
        "meta_object_name": "VNREDSAT 1",
        "meta_object_id": "2013-021B",
        "meta_epoch": "2025-12-04T18:23:50.815104",
        "meta_mean_motion": 14.64904471,
        "meta_eccentricity": 0.0001349,
        "meta_inclination": 97.9385,
        "meta_ra_of_asc_node": 34.3206,
        "meta_arg_of_pericenter": 83.6428,
        "meta_mean_anomaly": 276.4929,
        "meta_ephemeris_type": 0,
        "meta_classification_type": "U",
        "meta_norad_cat_id": 39160,
        "meta_element_set_no": 999,
        "meta_rev_at_epoch": 67182,
        "meta_bstar": 0.00026543,
        "meta_mean_motion_dot": 1.373e-05,
        "meta_mean_motion_ddot": 0,
        "tle_line1": "1 39160U 13021B   25338.76656036  .00001373  00000+0  26543-3 0  9992",
        "tle_line2": "2 39160  97.9385  34.3206 0001349  83.6428 276.4929 14.64904471671821"
      },
      "geometry": {
        "type": "Point",
        "coordinates": [
          -143.12886760224404,
          13.10041883818239
        ]
      }
    },
    {
      "type": "Feature",
      "properties": {
        "norad_id": 39227,
        "name": "ARIRANG-5 (KOMPSAT-5)",
        "group": "resource",
        "lat": -66.748080915879,
        "lon": -177.96931393847362,
        "alt_km": 562.6101612254879,
        "timestamp": "2025-12-05T11:32:55.683377+00:00",
        "meta_object_name": "ARIRANG-5 (KOMPSAT-5)",
        "meta_object_id": "2013-042A",
        "meta_epoch": "2025-12-04T18:17:32.499744",
        "meta_mean_motion": 15.04511877,
        "meta_eccentricity": 0.0004173,
        "meta_inclination": 97.6151,
        "meta_ra_of_asc_node": 163.1802,
        "meta_arg_of_pericenter": 79.1291,
        "meta_mean_anomaly": 281.0404,
        "meta_ephemeris_type": 0,
        "meta_classification_type": "U",
        "meta_norad_cat_id": 39227,
        "meta_element_set_no": 999,
        "meta_rev_at_epoch": 67462,
        "meta_bstar": 0.00024026,
        "meta_mean_motion_dot": 3.305e-05,
        "meta_mean_motion_ddot": 0,
        "tle_line1": "1 39227U 13042A   25338.76218171  .00003305  00000+0  24026-3 0  9994",
        "tle_line2": "2 39227  97.6151 163.1802 0004173  79.1291 281.0404 15.04511877674622"
      },
      "geometry": {
        "type": "Point",
        "coordinates": [
          -177.96931393847362,
          -66.748080915879
        ]
      }
    },
    {
      "type": "Feature",
      "properties": {
        "norad_id": 39418,
        "name": "SKYSAT-A",
        "group": "resource",
        "lat": 58.0605557325044,
        "lon": -138.03558254213328,
        "alt_km": 537.1671458218725,
        "timestamp": "2025-12-05T11:32:55.683388+00:00",
        "meta_object_name": "SKYSAT-A",
        "meta_object_id": "2013-066C",
        "meta_epoch": "2025-12-04T15:56:50.841312",
        "meta_mean_motion": 15.11511917,
        "meta_eccentricity": 0.0020403,
        "meta_inclination": 97.4121,
        "meta_ra_of_asc_node": 29.1189,
        "meta_arg_of_pericenter": 266.4251,
        "meta_mean_anomaly": 93.4646,
        "meta_ephemeris_type": 0,
        "meta_classification_type": "U",
        "meta_norad_cat_id": 39418,
        "meta_element_set_no": 999,
        "meta_rev_at_epoch": 65908,
        "meta_bstar": 0.00044387,
        "meta_mean_motion_dot": 7.494e-05,
        "meta_mean_motion_ddot": 0,
        "tle_line1": "1 39418U 13066C   25338.66447733  .00007494  00000+0  44387-3 0  9994",
        "tle_line2": "2 39418  97.4121  29.1189 0020403 266.4251  93.4646 15.11511917659088"
      },
      "geometry": {
        "type": "Point",
        "coordinates": [
          -138.03558254213328,
          58.0605557325044
        ]
      }
    },
    {
      "type": "Feature",
      "properties": {
        "norad_id": 39419,
        "name": "DUBAISAT-2",
        "group": "resource",
        "lat": -11.691328113396073,
        "lon": -28.3362676959856,
        "alt_km": 538.1808750799783,
        "timestamp": "2025-12-05T11:32:55.683398+00:00",
        "meta_object_name": "DUBAISAT-2",
        "meta_object_id": "2013-066D",
        "meta_epoch": "2025-12-04T18:05:09.535776",
        "meta_mean_motion": 15.08235646,
        "meta_eccentricity": 0.001131,
        "meta_inclination": 97.4438,
        "meta_ra_of_asc_node": 329.4084,
        "meta_arg_of_pericenter": 350.8034,
        "meta_mean_anomaly": 9.2985,
        "meta_ephemeris_type": 0,
        "meta_classification_type": "U",
        "meta_norad_cat_id": 39419,
        "meta_element_set_no": 999,
        "meta_rev_at_epoch": 65706,
        "meta_bstar": 0.00059954,
        "meta_mean_motion_dot": 9.24e-05,
        "meta_mean_motion_ddot": 0,
        "tle_line1": "1 39419U 13066D   25338.75358259  .00009240  00000+0  59954-3 0  9996",
        "tle_line2": "2 39419  97.4438 329.4084 0011310 350.8034   9.2985 15.08235646657069"
      },
      "geometry": {
        "type": "Point",
        "coordinates": [
          -28.3362676959856,
          -11.691328113396073
        ]
      }
    },
    {
      "type": "Feature",
      "properties": {
        "norad_id": 39574,
        "name": "GPM-CORE",
        "group": "resource",
        "lat": -35.88874176165854,
        "lon": 76.76426176893166,
        "alt_km": 431.094896619411,
        "timestamp": "2025-12-05T11:32:55.683408+00:00",
        "meta_object_name": "GPM-CORE",
        "meta_object_id": "2014-009C",
        "meta_epoch": "2025-12-04T15:57:33.319008",
        "meta_mean_motion": 15.45245406,
        "meta_eccentricity": 0.0010521,
        "meta_inclination": 64.9752,
        "meta_ra_of_asc_node": 239.742,
        "meta_arg_of_pericenter": 268.843,
        "meta_mean_anomaly": 91.1506,
        "meta_ephemeris_type": 0,
        "meta_classification_type": "U",
        "meta_norad_cat_id": 39574,
        "meta_element_set_no": 999,
        "meta_rev_at_epoch": 66776,
        "meta_bstar": 0.0006063,
        "meta_mean_motion_dot": 0.00028915,
        "meta_mean_motion_ddot": 0,
        "tle_line1": "1 39574U 14009C   25338.66496897  .00028915  00000+0  60630-3 0  9990",
        "tle_line2": "2 39574  64.9752 239.7420 0010521 268.8430  91.1506 15.45245406667760"
      },
      "geometry": {
        "type": "Point",
        "coordinates": [
          76.76426176893166,
          -35.88874176165854
        ]
      }
    },
    {
      "type": "Feature",
      "properties": {
        "norad_id": 39634,
        "name": "SENTINEL-1A",
        "group": "resource",
        "lat": 3.2378405297792,
        "lon": 165.29608410024218,
        "alt_km": 698.292127004931,
        "timestamp": "2025-12-05T11:32:55.683419+00:00",
        "meta_object_name": "SENTINEL-1A",
        "meta_object_id": "2014-016A",
        "meta_epoch": "2025-12-04T18:17:06.055296",
        "meta_mean_motion": 14.59201773,
        "meta_eccentricity": 0.0001246,
        "meta_inclination": 98.1805,
        "meta_ra_of_asc_node": 344.1211,
        "meta_arg_of_pericenter": 89.5923,
        "meta_mean_anomaly": 270.542,
        "meta_ephemeris_type": 0,
        "meta_classification_type": "U",
        "meta_norad_cat_id": 39634,
        "meta_element_set_no": 999,
        "meta_rev_at_epoch": 62166,
        "meta_bstar": 4.7994e-05,
        "meta_mean_motion_dot": 1.8e-06,
        "meta_mean_motion_ddot": 0,
        "tle_line1": "1 39634U 14016A   25338.76187564  .00000180  00000+0  47994-4 0  9997",
        "tle_line2": "2 39634  98.1805 344.1211 0001246  89.5923 270.5420 14.59201773621663"
      },
      "geometry": {
        "type": "Point",
        "coordinates": [
          165.29608410024218,
          3.2378405297792
        ]
      }
    },
    {
      "type": "Feature",
      "properties": {
        "norad_id": 39731,
        "name": "KAZEOSAT 1",
        "group": "resource",
        "lat": -57.3957474540595,
        "lon": -141.71399236775596,
        "alt_km": 759.3748530963449,
        "timestamp": "2025-12-05T11:32:55.683429+00:00",
        "meta_object_name": "KAZEOSAT 1",
        "meta_object_id": "2014-024A",
        "meta_epoch": "2025-12-04T17:47:40.369344",
        "meta_mean_motion": 14.42055496,
        "meta_eccentricity": 0.000106,
        "meta_inclination": 98.3443,
        "meta_ra_of_asc_node": 50.8281,
        "meta_arg_of_pericenter": 99.2817,
        "meta_mean_anomaly": 260.8493,
        "meta_ephemeris_type": 0,
        "meta_classification_type": "U",
        "meta_norad_cat_id": 39731,
        "meta_element_set_no": 999,
        "meta_rev_at_epoch": 61053,
        "meta_bstar": 0.00016587,
        "meta_mean_motion_dot": 5.02e-06,
        "meta_mean_motion_ddot": 0,
        "tle_line1": "1 39731U 14024A   25338.74143946  .00000502  00000+0  16587-3 0  9999",
        "tle_line2": "2 39731  98.3443  50.8281 0001060  99.2817 260.8493 14.42055496610530"
      },
      "geometry": {
        "type": "Point",
        "coordinates": [
          -141.71399236775596,
          -57.3957474540595
        ]
      }
    }
  ]
}